IRIDIUM 57 [-]          
1 25273U 98019B   24030.39729656  .00000543  00000+0  18382-3 0  9998
2 25273  86.3991 356.2352 0002179  87.2316 272.9130 14.35063349352517
IRIDIUM 63 [-]          
1 25286U 98021B   24030.26331540  .00000591  00000+0  19834-3 0  9998
2 25286  86.3985 293.2264 0002268  88.3221 271.8235 14.35587728351528
IRIDIUM 69 [-]          
1 25319U 98026A   24030.32059603  .00000853  00000+0  26610-3 0  9995
2 25319  86.4003 308.0023 0000851 173.8019 186.3191 14.39779914350531
IRIDIUM 71 [-]          
1 25320U 98026B   24030.28206485  .00000676  00000+0  20811-3 0  9994
2 25320  86.3989 302.8135 0001521  19.5047 340.6210 14.40100513351042
IRIDIUM 73 [-]          
1 25344U 98032C   24030.63131648  .00000716  00000+0  17876-3 0  9996
2 25344  86.4391 260.2894 0001526  98.0146 262.1232 14.50268679357544
IRIDIUM 82 [-]          
1 25467U 98051A   24030.40007504  .00020799  00000+0  11460-2 0  9996
2 25467  86.3959 351.3037 0139277  10.1854 350.2149 15.05858563347572
IRIDIUM 2 [-]           
1 25527U 98066A   24030.49030444  .00057562  00000+0  92722-3 0  9996
2 25527  85.5139  31.8859 0007522 114.9687 245.2355 15.52699652386205
